[
    {
        "Altitude(m)": 622200.1125929526,
        "Argument of Periapsis(deg)": 0.0,
        "Eccentricity": 0.0,
        "Inclination(deg)": 60.0,
        "Latitude(deg)": -52.16255310950456,
        "Longitude(deg)": 7.360893981348385,
        "Mean Anomaly(deg)": -65.45450000000001,
        "RAAN(deg)": 155.0,
        "Satellite Name": "Test1 700",
        "Satellite Number": 700,
        "Semi-Major Axis(m)": 6980739.136638005,
        "Time(s)": 0
    },
    {
        "Altitude(m)": 622058.2798211987,
        "Argument of Periapsis(deg)": 0.00010418945913296404,
        "Eccentricity": 0.0,
        "Inclination(deg)": 60.0,
        "Latitude(deg)": -51.7993012828332,
        "Longitude(deg)": 8.128950268653771,
        "Mean Anomaly(deg)": -64.83439385453815,
        "RAAN(deg)": 154.99957995086027,
        "Satellite Name": "Test1 700",
        "Satellite Number": 700,
        "Semi-Major Axis(m)": 6980739.136638005,
        "Time(s)": 10
    }
]